{
  "type": "FeatureCollection",
  "features": [
    {
      "type": "Feature",
      "properties": {
        "norad_id": 58701,
        "name": "TIANMU-1 16",
        "group": "weather",
        "lat": 39.83951218351697,
        "lon": -2.935638281491593,
        "alt_km": 491.74131643542387,
        "timestamp": "2025-12-15T22:44:28.564092+00:00",
        "meta_object_name": "TIANMU-1 16",
        "meta_object_id": "2024-004B",
        "meta_epoch": "2025-12-15T07:57:08.688384",
        "meta_mean_motion": 15.24470877,
        "meta_eccentricity": 0.00043633,
        "meta_inclination": 97.4566,
        "meta_ra_of_asc_node": 170.1776,
        "meta_arg_of_pericenter": 284.933,
        "meta_mean_anomaly": 75.1424,
        "meta_ephemeris_type": 0,
        "meta_classification_type": "U",
        "meta_norad_cat_id": 58701,
        "meta_element_set_no": 999,
        "meta_rev_at_epoch": 10774,
        "meta_bstar": 0.00022389142,
        "meta_mean_motion_dot": 5.428e-05,
        "meta_mean_motion_ddot": 0,
        "tle_line1": "1 58701U 24004B   25349.33135056  .00005428  00000+0  22389-3 0  9995",
        "tle_line2": "2 58701  97.4566 170.1776 0004363 284.9330  75.1424 15.24470877107741"
      },
      "geometry": {
        "type": "Point",
        "coordinates": [
          -2.935638281491593,
          39.83951218351697
        ]
      }
    },
    {
      "type": "Feature",
      "properties": {
        "norad_id": 58702,
        "name": "TIANMU-1 17",
        "group": "weather",
        "lat": -44.27624238432108,
        "lon": -16.137992363557046,
        "alt_km": 497.7868550608391,
        "timestamp": "2025-12-15T22:44:28.564112+00:00",
        "meta_object_name": "TIANMU-1 17",
        "meta_object_id": "2024-004C",
        "meta_epoch": "2025-12-15T09:09:22.341312",
        "meta_mean_motion": 15.24515738,
        "meta_eccentricity": 0.00035746,
        "meta_inclination": 97.46,
        "meta_ra_of_asc_node": 170.6389,
        "meta_arg_of_pericenter": 287.5896,
        "meta_mean_anomaly": 72.495,
        "meta_ephemeris_type": 0,
        "meta_classification_type": "U",
        "meta_norad_cat_id": 58702,
        "meta_element_set_no": 999,
        "meta_rev_at_epoch": 10774,
        "meta_bstar": 0.00022744483,
        "meta_mean_motion_dot": 5.522e-05,
        "meta_mean_motion_ddot": 0,
        "tle_line1": "1 58702U 24004C   25349.38150858  .00005522  00000+0  22744-3 0  9998",
        "tle_line2": "2 58702  97.4600 170.6389 0003574 287.5896  72.4950 15.24515738107745"
      },
      "geometry": {
        "type": "Point",
        "coordinates": [
          -16.137992363557046,
          -44.27624238432108
        ]
      }
    },
    {
      "type": "Feature",
      "properties": {
        "norad_id": 58703,
        "name": "TIANMU-1 18",
        "group": "weather",
        "lat": -43.548818681141924,
        "lon": 178.55540541647343,
        "alt_km": 497.2561907952031,
        "timestamp": "2025-12-15T22:44:28.564130+00:00",
        "meta_object_name": "TIANMU-1 18",
        "meta_object_id": "2024-004D",
        "meta_epoch": "2025-12-15T08:45:22.735008",
        "meta_mean_motion": 15.24501772,
        "meta_eccentricity": 0.00029361,
        "meta_inclination": 97.4617,
        "meta_ra_of_asc_node": 170.8182,
        "meta_arg_of_pericenter": 287.684,
        "meta_mean_anomaly": 72.4077,
        "meta_ephemeris_type": 0,
        "meta_classification_type": "U",
        "meta_norad_cat_id": 58703,
        "meta_element_set_no": 999,
        "meta_rev_at_epoch": 10774,
        "meta_bstar": 0.00020714292,
        "meta_mean_motion_dot": 5.02e-05,
        "meta_mean_motion_ddot": 0,
        "tle_line1": "1 58703U 24004D   25349.36484647  .00005020  00000+0  20714-3 0  9991",
        "tle_line2": "2 58703  97.4617 170.8182 0002936 287.6840  72.4077 15.24501772107741"
      },
      "geometry": {
        "type": "Point",
        "coordinates": [
          178.55540541647343,
          -43.548818681141924
        ]
      }
    },
    {
      "type": "Feature",
      "properties": {
        "norad_id": 58990,
        "name": "INSAT-3DS",
        "group": "weather",
        "lat": 0.02553097183265431,
        "lon": 148.03704807770433,
        "alt_km": 35788.27028788584,
        "timestamp": "2025-12-15T22:44:28.564152+00:00",
        "meta_object_name": "INSAT-3DS",
        "meta_object_id": "2024-033A",
        "meta_epoch": "2025-12-15T03:30:20.003904",
        "meta_mean_motion": 1.0027384,
        "meta_eccentricity": 0.00012623,
        "meta_inclination": 0.0449,
        "meta_ra_of_asc_node": 127.4134,
        "meta_arg_of_pericenter": 141.4872,
        "meta_mean_anomaly": 309.8287,
        "meta_ephemeris_type": 0,
        "meta_classification_type": "U",
        "meta_norad_cat_id": 58990,
        "meta_element_set_no": 999,
        "meta_rev_at_epoch": 4522,
        "meta_bstar": 0,
        "meta_mean_motion_dot": -1.36e-06,
        "meta_mean_motion_ddot": 0,
        "tle_line1": "1 58990U 24033A   25349.14606486 -.00000136  00000+0  00000+0 0  9990",
        "tle_line2": "2 58990   0.0449 127.4134 0001262 141.4872 309.8287  1.00273840 45225"
      },
      "geometry": {
        "type": "Point",
        "coordinates": [
          148.03704807770433,
          0.02553097183265431
        ]
      }
    },
    {
      "type": "Feature",
      "properties": {
        "norad_id": 59051,
        "name": "METEOR-M2 4",
        "group": "weather",
        "lat": 33.393197532580196,
        "lon": -58.97141711053523,
        "alt_km": 811.5788521032491,
        "timestamp": "2025-12-15T22:44:28.564171+00:00",
        "meta_object_name": "METEOR-M2 4",
        "meta_object_id": "2024-039A",
        "meta_epoch": "2025-12-15T09:04:37.202304",
        "meta_mean_motion": 14.22401753,
        "meta_eccentricity": 0.00068943,
        "meta_inclination": 98.6769,
        "meta_ra_of_asc_node": 306.2457,
        "meta_arg_of_pericenter": 351.0395,
        "meta_mean_anomaly": 9.0659,
        "meta_ephemeris_type": 0,
        "meta_classification_type": "U",
        "meta_norad_cat_id": 59051,
        "meta_element_set_no": 999,
        "meta_rev_at_epoch": 9313,
        "meta_bstar": 3.4040038e-05,
        "meta_mean_motion_dot": 3.2e-07,
        "meta_mean_motion_ddot": 0,
        "tle_line1": "1 59051U 24039A   25349.37820836  .00000032  00000+0  34040-4 0  9997",
        "tle_line2": "2 59051  98.6769 306.2457 0006894 351.0395   9.0659 14.22401753 93131"
      },
      "geometry": {
        "type": "Point",
        "coordinates": [
          -58.97141711053523,
          33.393197532580196
        ]
      }
    },
    {
      "type": "Feature",
      "properties": {
        "norad_id": 60133,
        "name": "GOES 19",
        "group": "weather",
        "lat": -0.0026348183530877254,
        "lon": -9.247850167741225,
        "alt_km": 35782.857262693164,
        "timestamp": "2025-12-15T22:44:28.564199+00:00",
        "meta_object_name": "GOES 19",
        "meta_object_id": "2024-119A",
        "meta_epoch": "2025-12-15T06:10:57.118656",
        "meta_mean_motion": 1.00270196,
        "meta_eccentricity": 0.00010066,
        "meta_inclination": 0.0095,
        "meta_ra_of_asc_node": 62.4117,
        "meta_arg_of_pericenter": 260.5771,
        "meta_mean_anomaly": 138.7124,
        "meta_ephemeris_type": 0,
        "meta_classification_type": "U",
        "meta_norad_cat_id": 60133,
        "meta_element_set_no": 999,
        "meta_rev_at_epoch": 512,
        "meta_bstar": 0,
        "meta_mean_motion_dot": 0,
        "meta_mean_motion_ddot": 0,
        "tle_line1": "1 60133U 24119A   25349.25760554  .00000000  00000+0  00000+0 0  9995",
        "tle_line2": "2 60133   0.0095  62.4117 0001006 260.5771 138.7124  1.00270196  5125"
      },
      "geometry": {
        "type": "Point",
        "coordinates": [
          -9.247850167741225,
          -0.0026348183530877254
        ]
      }
    },
    {
      "type": "Feature",
      "properties": {
        "norad_id": 65815,
        "name": "FENGYUN 3H",
        "group": "weather",
        "lat": -62.72673937059235,
        "lon": 92.27643933581507,
        "alt_km": 833.2248639358422,
        "timestamp": "2025-12-15T22:44:28.564217+00:00",
        "meta_object_name": "FENGYUN 3H",
        "meta_object_id": "2025-219A",
        "meta_epoch": "2025-12-15T08:03:57.717216",
        "meta_mean_motion": 14.19905521,
        "meta_eccentricity": 6.501e-05,
        "meta_inclination": 98.6587,
        "meta_ra_of_asc_node": 288.8701,
        "meta_arg_of_pericenter": 98.0519,
        "meta_mean_anomaly": 262.0731,
        "meta_ephemeris_type": 0,
        "meta_classification_type": "U",
        "meta_norad_cat_id": 65815,
        "meta_element_set_no": 999,
        "meta_rev_at_epoch": 1129,
        "meta_bstar": 6.5697303e-05,
        "meta_mean_motion_dot": 9.6e-07,
        "meta_mean_motion_ddot": 0,
        "tle_line1": "1 65815U 25219A   25349.33608469  .00000096  00000+0  65697-4 0  9997",
        "tle_line2": "2 65815  98.6587 288.8701 0000650  98.0519 262.0731 14.19905521 11298"
      },
      "geometry": {
        "type": "Point",
        "coordinates": [
          92.27643933581507,
          -62.72673937059235
        ]
      }
    }
  ]
}